ONEWEB-0363             
1 49289U 21090L   24143.26336357  .00000098  00000+0  20841-3 0  9997
2 49289  87.9220  64.8440 0001609  73.9167 286.2143 13.20775560130520
ONEWEB-0364             
1 49290U 21090M   24143.83153714  .00000024  00000+0  27075-4 0  9992
2 49290  87.9223  64.7561 0001867  80.7963 279.3381 13.20776071131733
ONEWEB-0365             
1 49291U 21090N   24143.89981519  .00000014  00000+0  25584-5 0  9994
2 49291  87.9135  95.2769 0002187  85.2924 274.8459 13.19727539126809
ONEWEB-0366             
1 49292U 21090P   24143.89075423  .00000243  00000+0  62142-3 0  9996
2 49292  87.8962  79.9944 0001909  84.9198 275.2149 13.14501118128330
ONEWEB-0367             
1 49293U 21090Q   24143.33753778  .00000112  00000+0  24442-3 0  9998
2 49293  87.9221  64.8237 0001889  87.6464 272.4885 13.20770736130050
ONEWEB-0368             
1 49294U 21090R   24143.84100422  .00000004  00000+0 -23001-4 0  9999
2 49294  87.9222  64.7536 0001459 104.0607 256.0689 13.20774568131271
ONEWEB-0369             
1 49295U 21090S   24143.89507824  .00000044  00000+0  78473-4 0  9998
2 49295  87.9142  95.2792 0002127  87.1179 273.0197 13.19727384126790
ONEWEB-0370             
1 49296U 21090T   24143.34702478  .00000121  00000+0  26590-3 0  9999
2 49296  87.9221  64.8264 0002234  71.6934 288.4442 13.20770415130097
